COMMENT,ORIGINATOR,NORAD_CAT_ID,OBJECT_NAME,OBJECT_TYPE,CLASSIFICATION_TYPE,INTLDES,EPOCH,EPOCH_MICROSECONDS,MEAN_MOTION,ECCENTRICITY,INCLINATION,RA_OF_ASC_NODE,ARG_OF_PERICENTER,MEAN_ANOMALY,EPHEMERIS_TYPE,ELEMENT_SET_NO,REV_AT_EPOCH,BSTAR,MEAN_MOTION_DOT,MEAN_MOTION_DDOT,FILE,TLE_LINE0,TLE_LINE1,TLE_LINE2,OBJECT_ID,OBJECT_NUMBER,SEMIMAJOR_AXIS,PERIOD,APOGEE,PERIGEE,DECAYED
GENERATED VIA SPACETRACK.ORG API,18 SPCS,58292,UMBRA-08,PAYLOAD,U,23174AN,2025-03-26 03:48:55,808064,15.28623908,0.0003034,97.4158,160.4788,187.2345,172.8851,0,999,7645,0.0028424,0.00079826,0,4681040,0 UMBRA-08,1 58292U 23174AN  25085.15897926  .00079826  00000-0  28424-2 0  9994,2 58292  97.4158 160.4788 0003034 187.2345 172.8851 15.28623908 76454,2023-174AN,58292,6858.062,94.202,482.008,477.846,1
GENERATED VIA SPACETRACK.ORG API,18 SPCS,58292,UMBRA-08,PAYLOAD,U,23174AN,2025-03-26 11:40:14,81376,15.28685782,0.0002959,97.4157,160.8051,185.1985,174.9224,0,999,7650,0.0032752,0.00092319,0,4681382,0 UMBRA-08,1 58292U 23174AN  25085.48627409  .00092319  00000-0  32752-2 0  9998,2 58292  97.4157 160.8051 0002959 185.1985 174.9224 15.28685782 76503,2023-174AN,58292,6857.877,94.199,481.771,477.713,1
GENERATED VIA SPACETRACK.ORG API,18 SPCS,58292,UMBRA-08,PAYLOAD,U,23174AN,2025-03-26 11:40:14,81376,15.28685782,0.0002959,97.4157,160.8051,185.1985,174.9224,0,999,7650,0.0032752,0.00092319,0,4681553,0 UMBRA-08,1 58292U 23174AN  25085.48627409  .00092319  00000-0  32752-2 0  9998,2 58292  97.4157 160.8051 0002959 185.1985 174.9224 15.28685782 76503,2023-174AN,58292,6857.877,94.199,481.771,477.713,1
GENERATED VIA SPACETRACK.ORG API,18 SPCS,58292,UMBRA-08,PAYLOAD,U,23174AN,2025-03-27 03:22:49,847808,15.28718635,0.0003127,97.4154,161.4561,183.1264,176.9957,0,999,7660,0.0023519,0.00066108,0,4681985,0 UMBRA-08,1 58292U 23174AN  25086.14085472  .00066108  00000-0  23519-2 0  9998,2 58292  97.4154 161.4561 0003127 183.1264 176.9957 15.28718635 76609,2023-174AN,58292,6857.779,94.197,481.788,477.499,1
GENERATED VIA SPACETRACK.ORG API,18 SPCS,58292,UMBRA-08,PAYLOAD,U,23174AN,2025-03-27 11:14:07,116288,15.28734133,0.0003086,97.4152,161.7826,181.0107,179.1127,0,999,7665,0.0023269,0.00065429,0,4682083,0 UMBRA-08,1 58292U 23174AN  25086.46813792  .00065429  00000-0  23269-2 0  9994,2 58292  97.4152 161.7826 0003086 181.0107 179.1127 15.28734133 76651,2023-174AN,58292,6857.732,94.196,481.714,477.481,1
GENERATED VIA SPACETRACK.ORG API,18 SPCS,58292,UMBRA-08,PAYLOAD,U,23174AN,2025-03-27 11:14:07,116288,15.28734133,0.0003086,97.4152,161.7826,181.0107,179.1127,0,999,7665,0.0023269,0.00065429,0,4682481,0 UMBRA-08,1 58292U 23174AN  25086.46813792  .00065429  00000-0  23269-2 0  9994,2 58292  97.4152 161.7826 0003086 181.0107 179.1127 15.28734133 76651,2023-174AN,58292,6857.732,94.196,481.714,477.481,1
GENERATED VIA SPACETRACK.ORG API,18 SPCS,58292,UMBRA-08,PAYLOAD,U,23174AN,2025-03-28 10:47:58,667712,15.28728692,0.0003089,97.4129,162.7598,180.0996,180.0244,0,999,7680,0.00041377,0.00011489,0,4683201,0 UMBRA-08,1 58292U 23174AN  25087.44998458  .00011489  00000-0  41377-3 0  9994,2 58292  97.4129 162.7598 0003089 180.0996 180.0244 15.28728692 76801,2023-174AN,58292,6857.749,94.196,481.732,477.495,1
GENERATED VIA SPACETRACK.ORG API,18 SPCS,58292,UMBRA-08,PAYLOAD,U,23174AN,2025-03-28 10:47:58,667712,15.28728692,0.0003089,97.4129,162.7598,180.0996,180.0244,0,999,7680,0.00041377,0.00011489,0,4683285,0 UMBRA-08,1 58292U 23174AN  25087.44998458  .00011489  00000-0  41377-3 0  9994,2 58292  97.4129 162.7598 0003089 180.0996 180.0244 15.28728692 76801,2023-174AN,58292,6857.749,94.196,481.732,477.495,1
GENERATED VIA SPACETRACK.ORG API,18 SPCS,58292,UMBRA-08,PAYLOAD,U,23174AN,2025-03-29 04:04:49,111968,15.28752099,0.0002699,97.4138,163.4773,191.9662,168.1514,0,999,7691,0.0024548,0.000691,0,4684192,0 UMBRA-08,1 58292U 23174AN  25088.17001287  .00069100  00000-0  24548-2 0  9993,2 58292  97.4138 163.4773 0002699 191.9662 168.1514 15.28752099 76918,2023-174AN,58292,6857.679,94.194,481.395,477.693,1
GENERATED VIA SPACETRACK.ORG API,18 SPCS,58292,UMBRA-08,PAYLOAD,U,23174AN,2025-03-29 04:04:49,111968,15.28752099,0.0002699,97.4138,163.4773,191.9662,168.1514,0,999,7691,0.0024548,0.000691,0,4684606,0 UMBRA-08,1 58292U 23174AN  25088.17001287  .00069100  00000-0  24548-2 0  9993,2 58292  97.4138 163.4773 0002699 191.9662 168.1514 15.28752099 76918,2023-174AN,58292,6857.679,94.194,481.395,477.693,1
GENERATED VIA SPACETRACK.ORG API,18 SPCS,58292,UMBRA-08,PAYLOAD,U,23174AN,2025-03-30 03:38:39,113376,15.28814885,0.0002968,97.4142,164.456,176.13,183.9963,0,999,7706,0.0028664,0.00080983,0,4684938,0 UMBRA-08,1 58292U 23174AN  25089.15184159  .00080983  00000-0  28664-2 0  9997,2 58292  97.4142 164.4560 0002968 176.1300 183.9963 15.28814885 77063,2023-174AN,58292,6857.491,94.191,481.391,477.321,1
GENERATED VIA SPACETRACK.ORG API,18 SPCS,58292,UMBRA-08,PAYLOAD,U,23174AN,2025-03-30 03:38:39,113376,15.28814885,0.0002968,97.4142,164.456,176.13,183.9963,0,999,7706,0.0028664,0.00080983,0,4685273,0 UMBRA-08,1 58292U 23174AN  25089.15184159  .00080983  00000-0  28664-2 0  9997,2 58292  97.4142 164.4560 0002968 176.1300 183.9963 15.28814885 77063,2023-174AN,58292,6857.491,94.191,481.391,477.321,1
GENERATED VIA SPACETRACK.ORG API,18 SPCS,58292,UMBRA-08,PAYLOAD,U,23174AN,2025-03-30 17:46:54,49440,15.28872445,0.0002951,97.4141,165.043,176.7646,183.3614,0,999,7715,0.0022379,0.00063171,0,4685470,0 UMBRA-08,1 58292U 23174AN  25089.74090335  .00063171  00000-0  22379-2 0  9991,2 58292  97.4141 165.0430 0002951 176.7646 183.3614 15.28872445 77159,2023-174AN,58292,6857.319,94.187,481.207,477.160,1
GENERATED VIA SPACETRACK.ORG API,18 SPCS,58292,UMBRA-08,PAYLOAD,U,23174AN,2025-03-30 17:46:54,49440,15.28872445,0.0002951,97.4141,165.043,176.7646,183.3614,0,999,7715,0.0022379,0.00063171,0,4685503,0 UMBRA-08,1 58292U 23174AN  25089.74090335  .00063171  00000-0  22379-2 0  9991,2 58292  97.4141 165.0430 0002951 176.7646 183.3614 15.28872445 77159,2023-174AN,58292,6857.319,94.187,481.207,477.160,1
GENERATED VIA SPACETRACK.ORG API,18 SPCS,58292,UMBRA-08,PAYLOAD,U,23174AN,2025-03-31 11:03:35,799264,15.28954332,0.0003001,97.4136,165.7603,174.7323,185.3949,0,999,7726,0.0019968,0.00056448,0,4686407,0 UMBRA-08,1 58292U 23174AN  25090.46083101  .00056448  00000-0  19968-2 0  9994,2 58292  97.4136 165.7603 0003001 174.7323 185.3949 15.28954332 77260,2023-174AN,58292,6857.074,94.182,480.997,476.881,1
GENERATED VIA SPACETRACK.ORG API,18 SPCS,58292,UMBRA-08,PAYLOAD,U,23174AN,2025-03-31 18:54:48,256992,15.28993928,0.0002982,97.4134,166.0863,174.9214,185.2057,0,999,7731,0.0021679,0.00061406,0,4686575,0 UMBRA-08,1 58292U 23174AN  25090.78805853  .00061406  00000-0  21679-2 0  9997,2 58292  97.4134 166.0863 0002982 174.9214 185.2057 15.28993928 77317,2023-174AN,58292,6856.956,94.180,480.865,476.776,1
GENERATED VIA SPACETRACK.ORG API,18 SPCS,58292,UMBRA-08,PAYLOAD,U,23174AN,2025-03-31 18:54:48,256992,15.28993928,0.0002982,97.4134,166.0863,174.9214,185.2057,0,999,7731,0.0021679,0.00061406,0,4686608,0 UMBRA-08,1 58292U 23174AN  25090.78805853  .00061406  00000-0  21679-2 0  9997,2 58292  97.4134 166.0863 0002982 174.9214 185.2057 15.28993928 77317,2023-174AN,58292,6856.956,94.180,480.865,476.776,1
GENERATED VIA SPACETRACK.ORG API,18 SPCS,58292,UMBRA-08,PAYLOAD,U,23174AN,2025-03-31 22:03:17,203104,15.28993582,0.0003015,97.4134,166.2167,174.4008,185.7266,0,999,7733,0.0017707,0.00050065,0,4686957,0 UMBRA-08,1 58292U 23174AN  25090.91894911  .00050065  00000-0  17707-2 0  9991,2 58292  97.4134 166.2167 0003015 174.4008 185.7266 15.28993582 77335,2023-174AN,58292,6856.957,94.180,480.889,476.754,1
GENERATED VIA SPACETRACK.ORG API,18 SPCS,58292,UMBRA-08,PAYLOAD,U,23174AN,2025-04-01 10:37:14,509056,15.28949351,0.0003418,97.4137,166.7387,171.3427,188.7873,0,999,7741,0.0019389,0.0005479,0,4687294,0 UMBRA-08,1 58292U 23174AN  25091.44252904  .00054790  00000-0  19389-2 0  9997,2 58292  97.4137 166.7387 0003418 171.3427 188.7873 15.28949351 77416,2023-174AN,58292,6857.089,94.182,481.298,476.610,1
GENERATED VIA SPACETRACK.ORG API,18 SPCS,58292,UMBRA-08,PAYLOAD,U,23174AN,2025-04-01 10:37:14,509056,15.28949351,0.0003418,97.4137,166.7387,171.3427,188.7873,0,999,7741,0.0019389,0.0005479,0,4687331,0 UMBRA-08,1 58292U 23174AN  25091.44252904  .00054790  00000-0  19389-2 0  9997,2 58292  97.4137 166.7387 0003418 171.3427 188.7873 15.28949351 77416,2023-174AN,58292,6857.089,94.182,481.298,476.610,1
GENERATED VIA SPACETRACK.ORG API,18 SPCS,58292,UMBRA-08,PAYLOAD,U,23174AN,2025-04-02 03:53:58,424928,15.28853153,0.0004202,97.4103,167.454,164.1747,195.9625,0,999,7752,0.0022549,0.00063625,0,4688321,0 UMBRA-08,1 58292U 23174AN  25092.16248177  .00063625  00000-0  22549-2 0  9993,2 58292  97.4103 167.4540 0004202 164.1747 195.9625 15.28853153 77526,2023-174AN,58292,6857.376,94.188,482.123,476.360,1
GENERATED VIA SPACETRACK.ORG API,18 SPCS,58292,UMBRA-08,PAYLOAD,U,23174AN,2025-04-02 03:53:58,424928,15.28853153,0.0004202,97.4103,167.454,164.1747,195.9625,0,999,7752,0.0022549,0.00063625,0,4688355,0 UMBRA-08,1 58292U 23174AN  25092.16248177  .00063625  00000-0  22549-2 0  9993,2 58292  97.4103 167.4540 0004202 164.1747 195.9625 15.28853153 77526,2023-174AN,58292,6857.376,94.188,482.123,476.360,1
GENERATED VIA SPACETRACK.ORG API,18 SPCS,58292,UMBRA-08,PAYLOAD,U,23174AN,2025-04-03 05:02:02,698944,15.28760363,0.0003599,97.4145,168.4979,171.8483,188.2816,0,999,7768,0.0017591,0.00049381,0,4689422,0 UMBRA-08,1 58292U 23174AN  25093.20975346  .00049381  00000-0  17591-2 0  9998,2 58292  97.4145 168.4979 0003599 171.8483 188.2816 15.28760363 77683,2023-174AN,58292,6857.654,94.194,481.987,477.051,1
